FENGYUN 3D              
1 43010U 17072A   26178.50714719 -.00000152  00000+0 -49999-4 0  9996
2 43010  99.0124 153.1158 0002332  45.5593 314.5773 14.19740446446453
NOAA 20 (JPSS-1)        
1 43013U 17073A   26178.50379846  .00000042  00000+0  40915-4 0  9993
2 43013  98.7772 117.8747 0000655 133.3836 226.7395 14.19513488445934
GOES 17                 
1 43226U 18022A   26178.50340609 -.00000172  00000+0  00000+0 0  9990
2 43226   0.9626  85.5445 0000712  25.9696 255.8172  1.00272629 30529
SENTINEL-3B             
1 43437U 18039A   26178.14815586  .00000098  00000+0  58567-4 0  9995
2 43437  98.6246 245.5374 0000757 108.4761 251.6502 14.26737400425549
FENGYUN 2H              
1 43491U 18050A   26178.46553647 -.00000120  00000+0  00000+0 0  9991
2 43491   3.0579  78.9606 0001691 122.5338 321.0079  1.00269800 29542
METOP-C                 
1 43689U 18087A   26178.48537343  .00000099  00000+0  65111-4 0  9990
2 43689  98.6640 237.9006 0002057 116.5111 243.6277 14.21514694396299
GEO-KOMPSAT-2A          
1 43823U 18100A   26178.55669772 -.00000332  00000+0  00000+0 0  9998
2 43823   0.0438 141.1710 0002381 308.4628 154.7090  1.00272524 27735
METEOR-M2 2             
1 44387U 19038A   26178.50060174  .00000304  00000+0  15146-3 0  9990
2 44387  98.9143 165.9380 0001654  33.0287 327.0994 14.24369539362767
ARKTIKA-M 1             
1 47719U 21016A   26177.96120626 -.00000323  00000+0  00000+0 0  9990
2 47719  63.2527  56.2167 7291839 269.9811  14.5584  2.00619221 38985
FENGYUN 3E              
1 49008U 21062A   26178.48986569  .00000424  00000+0  22065-3 0  9998
2 49008  98.7491 181.7829 0002772  69.0077 291.1396 14.19906375258049
GOES 18                 
1 51850U 22021A   26178.50419535  .00000108  00000+0  00000+0 0  9999
2 51850   0.0112 256.2440 0000682 231.9078 191.9720  1.00273501  6693
NOAA 21 (JPSS-2)        
1 54234U 22150A   26178.53638162  .00000026  00000+0  33056-4 0  9994
2 54234  98.7060 117.1518 0002242 136.7242 223.4110 14.19538233188019
METEOSAT-12 (MTG-I1)    
1 54743U 22170C   26178.30713612  .00000004  00000+0  00000+0 0  9994
2 54743   0.7496  24.5845 0003661  71.9897 289.0910  1.00275515 13072
TIANMU-1 03             
1 55973U 23039A   26178.52607900  .00014631  00000+0  28580-3 0  9999
2 55973  97.5228 352.9022 0003935  74.5400 285.6284 15.47569680182431
TIANMU-1 04             
1 55974U 23039B   26178.51153751  .00016095  00000+0  30758-3 0  9995
2 55974  97.5168 352.0413 0004347  67.5855 292.5856 15.48180158182447
TIANMU-1 05             
1 55975U 23039C   26178.50734887  .00015968  00000+0  31248-3 0  9993
2 55975  97.5211 352.4938 0003918  89.5143 270.6556 15.47496228182418
TIANMU-1 06             
1 55976U 23039D   26178.51556469  .00016009  00000+0  30701-3 0  9993
2 55976  97.5220 353.1482 0004108  84.8467 275.3252 15.48081378182445
FENGYUN 3G              
1 56232U 23055A   26178.53104479  .00023821  00000+0  37923-3 0  9992
2 56232  49.9934 292.7077 0007222 339.5247  20.5430 15.53076177181611
METEOR-M2 3             
1 57166U 23091A   26178.49728896  .00000008  00000+0  22156-4 0  9994
2 57166  98.6078 233.2645 0004847 130.2501 229.9103 14.24047593155988
TIANMU-1 07             
1 57399U 23101A   26178.49997157  .00006392  00000+0  22314-3 0  9999
2 57399  97.2592 228.9315 0004350 100.5284 259.6447 15.29922889163227
TIANMU-1 08             
1 57400U 23101B   26178.46658479  .00006678  00000+0  23292-3 0  9993
2 57400  97.2581 228.6680 0005651  90.4058 269.7831 15.29927847163218
TIANMU-1 09             
1 57401U 23101C   26178.51518589  .00006322  00000+0  22045-3 0  9998
2 57401  97.2539 228.1260 0004882 103.9299 256.2485 15.29962279163228
TIANMU-1 10             
1 57402U 23101D   26178.48301975  .00006832  00000+0  23816-3 0  9997
2 57402  97.2618 229.1556 0006441 100.0103 260.1865 15.29934594163215
FENGYUN 3F              
1 57490U 23111A   26178.47354065  .00000047  00000+0  42731-4 0  9992
2 57490  98.6834 248.2905 0001546  85.8250 274.3103 14.19940730150328
ARKTIKA-M 2             
1 58584U 23198A   26177.23312466  .00000156  00000+0  00000+0 0  9993
2 58584  63.2200 153.3551 6904874 267.3978  18.7558  2.00610703 18505
TIANMU-1 11             
1 58645U 23205A   26178.53801764  .00005646  00000+0  21505-3 0  9994
2 58645  97.3443 199.9325 0007710 339.4690  20.6238 15.27097582139108
TIANMU-1 12             
1 58646U 23205B   26178.50866418  .00003750  00000+0  14427-3 0  9998
2 58646  97.3432 199.6573 0005609 319.6274  40.4548 15.26993847139081
TIANMU-1 13             
1 58647U 23205C   26178.54179281  .00005650  00000+0  21645-3 0  9999
2 58647  97.3459 199.9640 0005017 295.2500  64.8219 15.26917341139083
TIANMU-1 14             
1 58648U 23205D   26178.52669591  .00005786  00000+0  22124-3 0  9999
2 58648  97.3395 199.1228 0005905 301.3486  58.7175 15.26962648139088
TIANMU-1 19             
1 58660U 23208A   26178.47867778  .00008779  00000+0  28909-3 0  9999
2 58660  97.4512 294.8318 0003432 277.9409  82.1443 15.31724185138900
TIANMU-1 20             
1 58661U 23208B   26178.57376080  .00008011  00000+0  25438-3 0  9995
2 58661  97.4454 295.5735 0005578 288.2845  71.7790 15.32914979139014
