OBJECT_NAME,OBJECT_ID,EPOCH,MEAN_MOTION,ECCENTRICITY,INCLINATION,RA_OF_ASC_NODE,ARG_OF_PERICENTER,MEAN_ANOMALY,EPHEMERIS_TYPE,CLASSIFICATION_TYPE,NORAD_CAT_ID,ELEMENT_SET_NO,REV_AT_EPOCH,BSTAR,MEAN_MOTION_DOT,MEAN_MOTION_DDOT
FENGYUN 3D,2017-072A,2026-06-27T12:10:17.517216,14.19740446,.0002332,99.0124,153.1158,45.5593,314.5773,0,U,43010,999,44645,-.49999E-4,-.152E-5,0
NOAA 20 (JPSS-1),2017-073A,2026-06-27T12:05:28.186944,14.19513488,.0000655,98.7772,117.8747,133.3836,226.7395,0,U,43013,999,44593,.40915E-4,.42E-6,0
GOES 17,2018-022A,2026-06-27T12:04:54.286176,1.00272629,.0000712,0.9626,85.5445,25.9696,255.8172,0,U,43226,999,3052,0,-.172E-5,0
SENTINEL-3B,2018-039A,2026-06-27T03:33:20.666304,14.26737400,.00007571,98.6246,245.5374,108.4761,251.6502,0,U,43437,999,42554,.58567144E-4,.98E-6,0
FENGYUN 2H,2018-050A,2026-06-27T11:10:22.351008,1.00269800,.0001691,3.0579,78.9606,122.5338,321.0079,0,U,43491,999,2954,0,-.12E-5,0
METOP-C,2018-087A,2026-06-27T11:38:56.264352,14.21514694,.0002057,98.6640,237.9006,116.5111,243.6277,0,U,43689,999,39629,.65111E-4,.99E-6,0
GEO-KOMPSAT-2A,2018-100A,2026-06-27T13:21:38.683008,1.00272524,.0002381,0.0438,141.1710,308.4628,154.7090,0,U,43823,999,2773,0,-.332E-5,0
METEOR-M2 2,2019-038A,2026-06-27T12:00:51.990336,14.24369539,.0001654,98.9143,165.9380,33.0287,327.0994,0,U,44387,999,36276,.15146E-3,.304E-5,0
ARKTIKA-M 1,2021-016A,2026-06-26T23:04:08.220864,2.00619221,.7291839,63.2527,56.2167,269.9811,14.5584,0,U,47719,999,3898,0,-.323E-5,0
FENGYUN 3E,2021-062A,2026-06-27T11:45:24.395616,14.19906375,.0002772,98.7491,181.7829,69.0077,291.1396,0,U,49008,999,25804,.22065E-3,.424E-5,0
GOES 18,2022-021A,2026-06-27T12:06:02.478240,1.00273501,.0000682,0.0112,256.2440,231.9078,191.9720,0,U,51850,999,669,0,.108E-5,0
NOAA 21 (JPSS-2),2022-150A,2026-06-27T12:52:23.371968,14.19538233,.0002242,98.7060,117.1518,136.7242,223.4110,0,U,54234,999,18801,.33056E-4,.26E-6,0
METEOSAT-12 (MTG-I1),2022-170C,2026-06-27T07:22:16.560768,1.00275515,.0003661,0.7496,24.5845,71.9897,289.0910,0,U,54743,999,1307,0,.4E-7,0
TIANMU-1 03,2023-039A,2026-06-27T12:37:33.225600,15.47569680,.0003935,97.5228,352.9022,74.5400,285.6284,0,U,55973,999,18243,.2858E-3,.14631E-3,0
TIANMU-1 04,2023-039B,2026-06-27T12:16:36.840864,15.48180158,.0004347,97.5168,352.0413,67.5855,292.5856,0,U,55974,999,18244,.30758E-3,.16095E-3,0
TIANMU-1 05,2023-039C,2026-06-27T12:10:34.942368,15.47496228,.0003918,97.5211,352.4938,89.5143,270.6556,0,U,55975,999,18241,.31248E-3,.15968E-3,0
TIANMU-1 06,2023-039D,2026-06-27T12:22:24.789216,15.48081378,.0004108,97.5220,353.1482,84.8467,275.3252,0,U,55976,999,18244,.30701E-3,.16009E-3,0
FENGYUN 3G,2023-055A,2026-06-27T12:44:42.269856,15.53076177,.0007222,49.9934,292.7077,339.5247,20.5430,0,U,56232,999,18161,.37923E-3,.23821E-3,0
METEOR-M2 3,2023-091A,2026-06-27T11:56:05.766144,14.24047593,.0004847,98.6078,233.2645,130.2501,229.9103,0,U,57166,999,15598,.22156E-4,.8E-7,0
TIANMU-1 07,2023-101A,2026-06-27T11:59:57.543648,15.29922889,.000435,97.2592,228.9315,100.5284,259.6447,0,U,57399,999,16322,.22314E-3,.6392E-4,0
TIANMU-1 08,2023-101B,2026-06-27T11:11:52.925856,15.29927847,.0005651,97.2581,228.6680,90.4058,269.7831,0,U,57400,999,16321,.23292E-3,.6678E-4,0
TIANMU-1 09,2023-101C,2026-06-27T12:21:52.060896,15.29962279,.0004882,97.2539,228.1260,103.9299,256.2485,0,U,57401,999,16322,.22045E-3,.6322E-4,0
TIANMU-1 10,2023-101D,2026-06-27T11:35:32.906400,15.29934594,.0006441,97.2618,229.1556,100.0103,260.1865,0,U,57402,999,16321,.23816E-3,.6832E-4,0
FENGYUN 3F,2023-111A,2026-06-27T11:21:53.912160,14.19940730,.0001546,98.6834,248.2905,85.8250,274.3103,0,U,57490,999,15032,.42731E-4,.47E-6,0
ARKTIKA-M 2,2023-198A,2026-06-26T05:35:41.970624,2.00610703,.69048743,63.2200,153.3551,267.3978,18.7558,0,U,58584,999,1850,0,.156E-5,0
TIANMU-1 11,2023-205A,2026-06-27T12:54:44.724096,15.27097582,.000771,97.3443,199.9325,339.4690,20.6238,0,U,58645,999,13910,.21505E-3,.5646E-4,0
TIANMU-1 12,2023-205B,2026-06-27T12:12:28.585152,15.26993847,.0005609,97.3432,199.6573,319.6274,40.4548,0,U,58646,999,13908,.14427E-3,.375E-4,0
TIANMU-1 13,2023-205C,2026-06-27T13:00:10.898784,15.26917341,.0005017,97.3459,199.9640,295.2500,64.8219,0,U,58647,999,13908,.21645E-3,.565E-4,0
TIANMU-1 14,2023-205D,2026-06-27T12:38:26.526624,15.26962648,.0005905,97.3395,199.1228,301.3486,58.7175,0,U,58648,999,13908,.22124E-3,.5786E-4,0
TIANMU-1 19,2023-208A,2026-06-27T11:29:17.760192,15.31724185,.0003432,97.4512,294.8318,277.9409,82.1443,0,U,58660,999,13890,.28909E-3,.8779E-4,0
TIANMU-1 20,2023-208B,2026-06-27T13:46:12.933120,15.32914979,.0005578,97.4454,295.5735,288.2845,71.7790,0,U,58661,999,13901,.25438E-3,.8011E-4,0
